KUIPER-00157            
1 65970U 25228Z   25310.98327106  .00015945  00000+0  47771-3 0  9995
2 65970  51.8792 192.9034 0005567 235.9410 124.1047 15.34650522  4923
STRIX-5                 
1 65971U 25229A   25311.05919692  .00006081  00000+0  46593-3 0  9995
2 65971  41.9281  76.9364 0038662  37.6652 322.6869 15.01773341  3544
ELECTRON R/B            
1 65972U 25229B   25310.79316528  .00007824  00000+0  59512-3 0  9996
2 65972  41.9279  78.4056 0038674  35.8356 324.5053 15.01772223  3488
ELECTRON KICK STAGE R/B 
1 65973U 25229C   25310.78007803  .00010699  00000+0  78832-3 0  9999
2 65973  41.9839  78.4336 0039851  35.8685 324.4806 15.02678766  3477
SDA_1664                
1 65974U 25230A   25311.11680828  .00000307  00000+0  26290-3 0  9990
2 65974  81.2996  57.6470 0003335  57.5946 302.5533 13.84696925  3071
SDA_1665                
1 65975U 25230B   25311.10517683  .00000287  00000+0  24130-3 0  9996
2 65975  81.3033  57.6436 0005030  99.2996 260.8731 13.85426935  3078
SDA_1666                
1 65976U 25230C   25311.11794626  .00000303  00000+0  25973-3 0  9997
2 65976  81.3005  57.6508 0002976  55.0186 305.1250 13.84625580  3070
SDA_1667                
1 65977U 25230D   25311.11394333  .00000299  00000+0  25504-3 0  9993
2 65977  81.3000  57.6443 0003885  68.0208 292.1362 13.84876567  3075
SDA_1668                
1 65978U 25230E   25311.10451617  .00000310  00000+0  26143-3 0  9996
2 65978  81.3017  57.6342 0004973 102.0371 258.1343 13.85468572  3076
SDA_1669                
1 65979U 25230F   25311.10822586  .00000316  00000+0  26805-3 0  9995
2 65979  81.3019  57.6398 0005061  89.4498 270.7239 13.85235438  3074
SDA_1670                
1 65980U 25230G   25311.11497323  .00000319  00000+0  27266-3 0  9990
2 65980  81.2997  57.6445 0003577  64.7541 295.3987 13.84812323  3074
SDA_1671                
1 65981U 25230H   25311.10620066  .00000289  00000+0  24386-3 0  9998
2 65981  81.3023  57.6377 0005021  96.3743 263.7986 13.85361977  3074
