CCSDS_OMM_VERS = 2.0
CREATION_DATE  = 
ORIGINATOR     = 

OBJECT_NAME    = KUIPER-00157
OBJECT_ID      = 2025-228Z
CENTER_NAME    = EARTH
REF_FRAME      = TEME
TIME_SYSTEM    = UTC
MEAN_ELEMENT_THEORY = SGP/SGP4

EPOCH          = 2025-11-06T23:35:54.619584
MEAN_MOTION    = 15.34650522
ECCENTRICITY   = .0005567
INCLINATION    = 51.8792
RA_OF_ASC_NODE = 192.9034
ARG_OF_PERICENTER = 235.9410
MEAN_ANOMALY   = 124.1047

EPHEMERIS_TYPE = 0
CLASSIFICATION_TYPE = U
NORAD_CAT_ID   = 65970
ELEMENT_SET_NO = 999
REV_AT_EPOCH   = 492
BSTAR          = .47771E-3
MEAN_MOTION_DOT = .15945E-3
MEAN_MOTION_DDOT = 0

CCSDS_OMM_VERS = 2.0
CREATION_DATE  = 
ORIGINATOR     = 

OBJECT_NAME    = STRIX-5
OBJECT_ID      = 2025-229A
CENTER_NAME    = EARTH
REF_FRAME      = TEME
TIME_SYSTEM    = UTC
MEAN_ELEMENT_THEORY = SGP/SGP4

EPOCH          = 2025-11-07T01:25:14.613888
MEAN_MOTION    = 15.01773341
ECCENTRICITY   = .0038662
INCLINATION    = 41.9281
RA_OF_ASC_NODE = 76.9364
ARG_OF_PERICENTER = 37.6652
MEAN_ANOMALY   = 322.6869

EPHEMERIS_TYPE = 0
CLASSIFICATION_TYPE = U
NORAD_CAT_ID   = 65971
ELEMENT_SET_NO = 999
REV_AT_EPOCH   = 354
BSTAR          = .46593E-3
MEAN_MOTION_DOT = .6081E-4
MEAN_MOTION_DDOT = 0

CCSDS_OMM_VERS = 2.0
CREATION_DATE  = 
ORIGINATOR     = 

OBJECT_NAME    = ELECTRON R/B
OBJECT_ID      = 2025-229B
CENTER_NAME    = EARTH
REF_FRAME      = TEME
TIME_SYSTEM    = UTC
MEAN_ELEMENT_THEORY = SGP/SGP4

EPOCH          = 2025-11-06T19:02:09.480192
MEAN_MOTION    = 15.01772223
ECCENTRICITY   = .0038674
INCLINATION    = 41.9279
RA_OF_ASC_NODE = 78.4056
ARG_OF_PERICENTER = 35.8356
MEAN_ANOMALY   = 324.5053

EPHEMERIS_TYPE = 0
CLASSIFICATION_TYPE = U
NORAD_CAT_ID   = 65972
ELEMENT_SET_NO = 999
REV_AT_EPOCH   = 348
BSTAR          = .59511592E-3
MEAN_MOTION_DOT = .7824E-4
MEAN_MOTION_DDOT = 0

CCSDS_OMM_VERS = 2.0
CREATION_DATE  = 
ORIGINATOR     = 

OBJECT_NAME    = ELECTRON KICK STAGE R/B
OBJECT_ID      = 2025-229C
CENTER_NAME    = EARTH
REF_FRAME      = TEME
TIME_SYSTEM    = UTC
MEAN_ELEMENT_THEORY = SGP/SGP4

EPOCH          = 2025-11-06T18:43:18.741792
MEAN_MOTION    = 15.02678766
ECCENTRICITY   = .00398513
INCLINATION    = 41.9839
RA_OF_ASC_NODE = 78.4336
ARG_OF_PERICENTER = 35.8685
MEAN_ANOMALY   = 324.4806

EPHEMERIS_TYPE = 0
CLASSIFICATION_TYPE = U
NORAD_CAT_ID   = 65973
ELEMENT_SET_NO = 999
REV_AT_EPOCH   = 347
BSTAR          = .78832322E-3
MEAN_MOTION_DOT = .10699E-3
MEAN_MOTION_DDOT = 0

CCSDS_OMM_VERS = 2.0
CREATION_DATE  = 
ORIGINATOR     = 

OBJECT_NAME    = SDA_1664
OBJECT_ID      = 2025-230A
CENTER_NAME    = EARTH
REF_FRAME      = TEME
TIME_SYSTEM    = UTC
MEAN_ELEMENT_THEORY = SGP/SGP4

EPOCH          = 2025-11-07T02:48:12.235392
MEAN_MOTION    = 13.84696925
ECCENTRICITY   = .0003335
INCLINATION    = 81.2996
RA_OF_ASC_NODE = 57.6470
ARG_OF_PERICENTER = 57.5946
MEAN_ANOMALY   = 302.5533

EPHEMERIS_TYPE = 0
CLASSIFICATION_TYPE = U
NORAD_CAT_ID   = 65974
ELEMENT_SET_NO = 999
REV_AT_EPOCH   = 307
BSTAR          = .2629E-3
MEAN_MOTION_DOT = .307E-5
MEAN_MOTION_DDOT = 0

CCSDS_OMM_VERS = 2.0
CREATION_DATE  = 
ORIGINATOR     = 

OBJECT_NAME    = SDA_1665
OBJECT_ID      = 2025-230B
CENTER_NAME    = EARTH
REF_FRAME      = TEME
TIME_SYSTEM    = UTC
MEAN_ELEMENT_THEORY = SGP/SGP4

EPOCH          = 2025-11-07T02:31:27.278112
MEAN_MOTION    = 13.85426935
ECCENTRICITY   = .000503
INCLINATION    = 81.3033
RA_OF_ASC_NODE = 57.6436
ARG_OF_PERICENTER = 99.2996
MEAN_ANOMALY   = 260.8731

EPHEMERIS_TYPE = 0
CLASSIFICATION_TYPE = U
NORAD_CAT_ID   = 65975
ELEMENT_SET_NO = 999
REV_AT_EPOCH   = 307
BSTAR          = .2413E-3
MEAN_MOTION_DOT = .287E-5
MEAN_MOTION_DDOT = 0

CCSDS_OMM_VERS = 2.0
CREATION_DATE  = 
ORIGINATOR     = 

OBJECT_NAME    = SDA_1666
OBJECT_ID      = 2025-230C
CENTER_NAME    = EARTH
REF_FRAME      = TEME
TIME_SYSTEM    = UTC
MEAN_ELEMENT_THEORY = SGP/SGP4

EPOCH          = 2025-11-07T02:49:50.556864
MEAN_MOTION    = 13.84625580
ECCENTRICITY   = .0002976
INCLINATION    = 81.3005
RA_OF_ASC_NODE = 57.6508
ARG_OF_PERICENTER = 55.0186
MEAN_ANOMALY   = 305.1250

EPHEMERIS_TYPE = 0
CLASSIFICATION_TYPE = U
NORAD_CAT_ID   = 65976
ELEMENT_SET_NO = 999
REV_AT_EPOCH   = 307
BSTAR          = .25973E-3
MEAN_MOTION_DOT = .303E-5
MEAN_MOTION_DDOT = 0

CCSDS_OMM_VERS = 2.0
CREATION_DATE  = 
ORIGINATOR     = 

OBJECT_NAME    = SDA_1667
OBJECT_ID      = 2025-230D
CENTER_NAME    = EARTH
REF_FRAME      = TEME
TIME_SYSTEM    = UTC
MEAN_ELEMENT_THEORY = SGP/SGP4

EPOCH          = 2025-11-07T02:44:04.703712
MEAN_MOTION    = 13.84876567
ECCENTRICITY   = .0003885
INCLINATION    = 81.3000
RA_OF_ASC_NODE = 57.6443
ARG_OF_PERICENTER = 68.0208
MEAN_ANOMALY   = 292.1362

EPHEMERIS_TYPE = 0
CLASSIFICATION_TYPE = U
NORAD_CAT_ID   = 65977
ELEMENT_SET_NO = 999
REV_AT_EPOCH   = 307
BSTAR          = .25504E-3
MEAN_MOTION_DOT = .299E-5
MEAN_MOTION_DDOT = 0

CCSDS_OMM_VERS = 2.0
CREATION_DATE  = 
ORIGINATOR     = 

OBJECT_NAME    = SDA_1668
OBJECT_ID      = 2025-230E
CENTER_NAME    = EARTH
REF_FRAME      = TEME
TIME_SYSTEM    = UTC
MEAN_ELEMENT_THEORY = SGP/SGP4

EPOCH          = 2025-11-07T02:30:30.197088
MEAN_MOTION    = 13.85468572
ECCENTRICITY   = .0004973
INCLINATION    = 81.3017
RA_OF_ASC_NODE = 57.6342
ARG_OF_PERICENTER = 102.0371
MEAN_ANOMALY   = 258.1343

EPHEMERIS_TYPE = 0
CLASSIFICATION_TYPE = U
NORAD_CAT_ID   = 65978
ELEMENT_SET_NO = 999
REV_AT_EPOCH   = 307
BSTAR          = .26143E-3
MEAN_MOTION_DOT = .31E-5
MEAN_MOTION_DDOT = 0

CCSDS_OMM_VERS = 2.0
CREATION_DATE  = 
ORIGINATOR     = 

OBJECT_NAME    = SDA_1669
OBJECT_ID      = 2025-230F
CENTER_NAME    = EARTH
REF_FRAME      = TEME
TIME_SYSTEM    = UTC
MEAN_ELEMENT_THEORY = SGP/SGP4

EPOCH          = 2025-11-07T02:35:50.714304
MEAN_MOTION    = 13.85235438
ECCENTRICITY   = .0005061
INCLINATION    = 81.3019
RA_OF_ASC_NODE = 57.6398
ARG_OF_PERICENTER = 89.4498
MEAN_ANOMALY   = 270.7239

EPHEMERIS_TYPE = 0
CLASSIFICATION_TYPE = U
NORAD_CAT_ID   = 65979
ELEMENT_SET_NO = 999
REV_AT_EPOCH   = 307
BSTAR          = .26805E-3
MEAN_MOTION_DOT = .316E-5
MEAN_MOTION_DDOT = 0

CCSDS_OMM_VERS = 2.0
CREATION_DATE  = 
ORIGINATOR     = 

OBJECT_NAME    = SDA_1670
OBJECT_ID      = 2025-230G
CENTER_NAME    = EARTH
REF_FRAME      = TEME
TIME_SYSTEM    = UTC
MEAN_ELEMENT_THEORY = SGP/SGP4

EPOCH          = 2025-11-07T02:45:33.687072
MEAN_MOTION    = 13.84812323
ECCENTRICITY   = .0003577
INCLINATION    = 81.2997
RA_OF_ASC_NODE = 57.6445
ARG_OF_PERICENTER = 64.7541
MEAN_ANOMALY   = 295.3987

EPHEMERIS_TYPE = 0
CLASSIFICATION_TYPE = U
NORAD_CAT_ID   = 65980
ELEMENT_SET_NO = 999
REV_AT_EPOCH   = 307
BSTAR          = .27266E-3
MEAN_MOTION_DOT = .319E-5
MEAN_MOTION_DDOT = 0

CCSDS_OMM_VERS = 2.0
CREATION_DATE  = 
ORIGINATOR     = 

OBJECT_NAME    = SDA_1671
OBJECT_ID      = 2025-230H
CENTER_NAME    = EARTH
REF_FRAME      = TEME
TIME_SYSTEM    = UTC
MEAN_ELEMENT_THEORY = SGP/SGP4

EPOCH          = 2025-11-07T02:32:55.737024
MEAN_MOTION    = 13.85361977
ECCENTRICITY   = .0005021
INCLINATION    = 81.3023
RA_OF_ASC_NODE = 57.6377
ARG_OF_PERICENTER = 96.3743
MEAN_ANOMALY   = 263.7986

EPHEMERIS_TYPE = 0
CLASSIFICATION_TYPE = U
NORAD_CAT_ID   = 65981
ELEMENT_SET_NO = 999
REV_AT_EPOCH   = 307
BSTAR          = .24386E-3
MEAN_MOTION_DOT = .289E-5
MEAN_MOTION_DDOT = 0

